#cP2023  4 17  0  0  0.00000000      96 ORBIT IGS20 HLM  IGS
## 2258  86400.00000000   900.00000000 60051 0.0000000000000
+   32   G01G02G03G04G05G06G07G08G09G10G11G12G13G14G15G16G17
+        G18G19G20G21G22G23G24G25G26G27G28G29G30G31G32  0  0
+          0  0  0  0  0  0  0  0  0  0  0  0  0  0  0  0  0
+          0  0  0  0  0  0  0  0  0  0  0  0  0  0  0  0  0
+          0  0  0  0  0  0  0  0  0  0  0  0  0  0  0  0  0
++         3  2  2  2  2  2  2  2  2  2  3  2  2  2  2  2  2
++         3  2  2  2  3  2  2  2  2  2  3  2  2  2  2  0  0
++         0  0  0  0  0  0  0  0  0  0  0  0  0  0  0  0  0
++         0  0  0  0  0  0  0  0  0  0  0  0  0  0  0  0  0
++         0  0  0  0  0  0  0  0  0  0  0  0  0  0  0  0  0
%c G  cc GPS ccc cccc cccc cccc cccc ccccc ccccc ccccc ccccc
%c cc cc ccc ccc cccc cccc cccc cccc ccccc ccccc ccccc ccccc
%f  1.2500000  1.025000000  0.00000000000  0.000000000000000
%f  0.0000000  0.000000000  0.00000000000  0.000000000000000
%i    0    0    0    0      0      0      0      0         0
%i    0    0    0    0      0      0      0      0         0
/* RAPID ORBIT COMBINATION FROM WEIGHTED AVERAGE OF:        
/* cod emr esa gfz grg jpl ngs sio usn whu                  
/* REFERENCED TO IGS TIME (IGST) AND TO WEIGHTED MEAN POLE: 
/* PCV:IGS20_2233 OL/AL:FES2014b NONE     Y  ORB:CMB CLK:CMB
*  2023  4 17 19 30  0.00000000
PG01  18325.938027   8729.333055  16990.722318    192.459359  6  6  7  96       
PG02 -12667.759777   7815.551242 -21522.612745   -605.065907  3     6 105       
PG03  16942.694239  -3192.565947  20042.403975   -326.784252  5  4  4 114       
PG04  26614.821308    307.362684    584.207939     19.258537  7  5  3  89       
PG05  -9634.040089 -13498.763901 -20891.051080   -123.782995  6  8  6 116       
PG06  -2254.125290 -22012.704290  14677.970804    587.118606  8  3  7 109       
PG07  13761.567218  -6655.297991 -21290.433531    199.125279  6  9  5 121       
PG08  22649.890216   7201.148767 -12323.036674   -118.223618  4  9  2 113       
PG09  23514.617678  -8105.585104  -9449.553272   -177.952143  5  6  5  89       
PG10 -10725.025025  24006.664603   2447.676507    -33.242182  6  5  5 103       
PG11 -12190.608733 -23584.444617   1300.713345   -165.838242 10 12  5  97       
PG12 -16444.058404   -451.530100  20551.306578   -365.137220  5  8  6  99       
PG13 -16282.244556 -13119.730096 -16670.275639    507.194335  6  9  6  93       
PG14  13371.750891 -22853.224852   -458.860221     28.163539  8  8  1  99       
PG15 -23428.333080  -5007.172924 -12202.132765     31.512694  6  9  5 106       
PG16   5954.625730  16468.114344 -20136.558316   -508.105330  3  9  5  95       
PG17  12188.609350 -13271.035560  19978.338277    711.028790  4  7  5 112       
PG18 -10973.774336  10470.132998 -21791.374921   -228.475780  3  6  6 105       
PG19   1701.014418 -14739.727448  21795.112183    304.977269  3  8  4 127       
PG20  -4226.734995 -21593.672281 -14982.092761    438.488805  3  9  3 128       
PG21  20310.133180  14695.129082  10527.354695    154.185494  5  8     97       
PG22   2120.684322  15423.129582  21979.814830    465.889164 10 10  8 136       
PG23 -16290.063702  18627.613685  -9438.492141     17.531599  5  6  4 108       
PG24 -20396.173316 -11220.460547  12806.842527   -155.521256  6  6  7  73       
PG25 -18051.260967  11370.634525  15335.416858    436.337149  3  7  4 101       
PG26  -2065.622376  24100.004540 -10688.417263    241.670159  7  9  5  98       
PG27  13059.962456  12939.394947 -19564.589703     56.744688  3  9  3 123       
PG28   1228.426203  21334.521506  15750.517160     66.496840  5 10  8 116       
PG29 -25646.967250   3296.146812  -6316.025720   -595.914704  3  6  6  95       
PG30   5157.739601 -17904.632955 -18722.712624   -521.885078  9  8  6 112       
PG31   6880.518067  23755.579577   8903.472131   -214.187447  6  7  8 105       
PG32  -8445.181746  14793.959330  20506.742473   -454.070975  6  6  4 103       
*  2023  4 17 19 45  0.00000000
PG01  19256.185863  10352.477382  15001.972789    192.456460  6  7  7  89       
PG02 -14229.536412   5802.521703 -21169.103950   -605.062673  3  2  6 111       
PG03  15974.231624  -1022.477875  21045.196918   -326.775950  4  4  4 104       
PG04  26396.502953    556.821437   3424.424385     19.266930  7  5  3  87       
PG05  -8641.447533 -15572.990064 -19836.558359   -123.784127  6  8  6 121       
PG06  -1161.544548 -20594.863217  16736.495489    587.119564  8  4  7  99       
PG07  15147.311131  -4560.553720 -20949.572605    199.117381  6  9  5 123       
PG08  21160.413256   7526.292488 -14549.756579   -118.224724  5  9  2 129       
PG09  24455.012005  -7945.976666  -6814.448342   -177.944967  5  6  5  91       
PG10 -10973.061897  23992.677801   -457.566563    -33.244032  6  5  5 109       
PG11 -11826.961496 -23442.073703   4141.456745   -165.849691 10 12  7 114       
PG12 -15279.713217  -2611.061541  21274.496371   -365.141204  6  7  5  92       
PG13 -14312.037833 -13112.295400 -18394.543148    507.198858  6  9  6  90       
PG14  13535.539450 -22522.440179  -3288.781759     28.174031  8  8  2 102       
PG15 -22056.980273  -5542.050028 -14388.000250     31.515994  7  9  4 103       
PG16   4723.523666  18273.981652 -18802.285221   -508.102587  4  9  5 104       
PG17  14305.725252 -13197.410097  18549.891452    711.030417  4  6  5 114       
PG18 -12351.733012   8383.427831 -21968.931135   -228.490664  4  5  6  99       
PG19   4223.928211 -14616.371464  21511.035089    304.981802  4  7  4 120       
PG20  -3575.751629 -23062.269954 -12829.957077    438.487183  2  9  3 122       
PG21  20794.179503  15544.847924   7977.671669    154.185503  5  8  1  86       
PG22   -303.407212  15396.591413  22086.261286    465.895422 10 10  8 127       
PG23 -15970.414890  17424.878847 -11958.542996     17.533961  5  5  3 107       
PG24 -21062.186135 -12448.345688  10482.633100   -155.534331  6  6  7  69       
PG25 -17413.912909   9541.797925  17194.403530    436.339699  4  7  4  95       
PG26  -2765.694965  24979.092603  -8158.380402    241.669905  7  8  5  92       
PG27  10828.959860  13177.331193 -20711.388927     56.737177  3  9  2 122       
PG28    -28.380875  19885.489517  17584.127556     66.502245  5  9  8 120       
PG29 -26199.377945   3095.740812  -3506.446152   -595.915939  3  6  7  89       
PG30   6524.105002 -16115.636276 -19902.603605   -521.883461  9  8  6 111       
PG31   6000.393683  22894.981486  11432.328160   -214.188158  6  6  8 106       
PG32 -10697.737682  14863.401023  19345.235955   -454.079968  7  6  5  99       
*  2023  4 17 20  0  0.00000000
PG01  20132.485109  11722.175516  12753.692727    192.453534  6  8  8  89       
PG02 -15852.041445   3919.116023 -20434.372443   -605.059161  3  3  6 102       
PG03  15089.697682   1282.858059  21680.961078   -326.767672  3  4  4  98       
PG04  25875.608928    847.735538   6206.119154     19.275302  7  5  3  87       
PG05  -7806.312750 -17568.981217 -18444.490515   -123.785472  6  9  5 112       
PG06    139.572910 -19068.221032  18507.112134    587.120540  7  5  6 102       
PG07  16595.157513  -2590.245896 -20235.385215    199.109880  6  9  5 118       
PG08  19455.799080   7966.934185 -16531.627339   -118.225422  5  9  2 123       
PG09  25101.969613  -7788.581583  -4062.602688   -177.937818  4  6  5  92       
PG10 -11096.613348  23684.688529  -3354.759960    -33.245292  6  5  5 104       
PG11 -11276.245683 -23057.634893   6911.086888   -165.861172 10 13  9 144       
PG12 -14201.951135  -4882.980413  21621.659254   -365.145322  6  7  5  87       
PG13 -12167.759375 -13210.340821 -19808.663516    507.204250  6  9  6  78       
PG14  13584.159545 -21910.934761  -6061.595631     28.184551  8  7  3 111       
PG15 -20493.640158  -6201.858450 -16335.821095     31.518914  7  9  4 103       
PG16   3664.072042  19997.009438 -17147.433398   -508.100321  5  9  5 103       
PG17  16249.569780 -13228.265457  16813.720790    711.032080  3  6  5 110       
PG18 -13839.100247   6376.683158 -21768.509220   -228.505519  5  5  6  95       
PG19   6697.904031 -14626.380650  20847.829949    304.986568  4  6  5 120       
PG20  -3057.734920 -24312.732478 -10458.784837    438.485008  3  9  3 115       
PG21  21128.636354  16157.091295   5299.589521    154.185166  5  8  2  90       
PG22  -2718.736276  15499.720231  21827.873212    465.901445 10 10  8 136       
PG23 -15618.038144  15950.271425 -14271.137769     17.536290  6  4  4 105       
PG24 -21603.884856 -13437.311332   7979.121514   -155.547390  7  7  8  71       
PG25 -16795.590701   7501.525955  18747.495884    436.342234  5  7  5  76       
PG26  -3329.897236  25611.552872  -5485.750261    241.669662  7  8  5 111       
PG27   8503.777283  13551.156283 -21512.427117     56.729603  3  8  2 119       
PG28  -1480.518373  18356.846342  19114.623305     66.507703  4  9  8 110       
PG29 -26441.242924   2907.826658   -636.880860   -595.917333  4  6  7  87       
PG30   8041.116089 -14303.612336 -20734.842220   -521.881745  9  8  6  98       
PG31   4914.505246  21855.073517  13758.196575   -214.188863  6  5  8 107       
PG32 -12798.147605  15029.046432  17853.764300   -454.088941  7  7  5 103       
EOF
